LANDSAT 8               
1 39084U 13008A   26170.56553498  .00000228  00000+0  60776-4 0  9998
2 39084  98.2302 240.6726 0001348  93.8876 266.2477 14.57095860698242
SARAL                   
1 39086U 13009A   26170.55481671  .00000051  00000+0  34784-4 0  9997
2 39086  98.5557 357.0920 0000635 291.8508  68.2608 14.32856404695940
GAOFEN-1                
1 39150U 13018A   26170.63815747  .00001009  00000+0  15179-3 0  9993
2 39150  97.9091 242.6567 0015671 257.7001 102.2454 14.76540877708607
VNREDSAT 1              
1 39160U 13021B   26170.61637500  .00000624  00000+0  12529-3 0  9993
2 39160  97.9073 223.9398 0001717  88.3317 271.8084 14.64859871700648
ARIRANG-5 (KOMPSAT-5)   
1 39227U 13042A   26170.62694530  .00000277  00000+0  24116-4 0  9997
2 39227  97.6201 357.2929 0005427 114.8996 245.2794 15.04494438704223
SKYSAT-A                
1 39418U 13066C   26170.43983930  .00002091  00000+0  12159-3 0  9998
2 39418  97.3811 219.7655 0019953 309.1936  50.7523 15.12985118688824
DUBAISAT-2              
1 39419U 13066D   26170.58863047  .00003025  00000+0  18877-3 0  9992
2 39419  97.4562 160.6703 0011994  32.9747 327.2228 15.10194524686750
GPM-CORE                
1 39574U 14009C   26170.54031820  .00009393  00000+0  20546-3 0  9994
2 39574  64.9724 300.2458 0011743 252.4250 107.5608 15.44614446698177
SENTINEL-1A             
1 39634U 14016A   26170.56177921  .00000155  00000+0  42659-4 0  9991
2 39634  98.1776 178.0602 0001405  81.0587 279.0772 14.59199822650362
KAZEOSAT 1              
1 39731U 14024A   26170.58892345  .00000383  00000+0  12956-3 0  9993
2 39731  98.3203 242.9769 0001325  76.0794 284.0543 14.42081860638909
ALOS-2                  
1 39766U 14029A   26170.57395096  .00001538  00000+0  21271-3 0  9999
2 39766  97.9224 267.7035 0001692  91.9201 268.2204 14.79476685651931
KAZEOSAT 2              
1 40010U 14033A   26170.58764509  .00000951  00000+0  11598-3 0  9997
2 40010  97.5399  10.0719 0007606 320.9551  39.1115 14.85474406649317
HODOYOSHI-4             
1 40011U 14033B   26170.58919060  .00000758  00000+0  87657-4 0  9997
2 40011  97.5448 355.2947 0022367 299.8180  60.0814 14.88130526649160
